*******************************************************************************
 Revised: Sep 29, 2017             Praxidike / (Jupiter)                    527

 Recently discovered irregular Jovian satellite.
*******************************************************************************
 
 
*******************************************************************************
Ephemeris / WWW_USER Sun Nov 12 11:14:29 2017 Pasadena, USA      / Horizons    
*******************************************************************************
Target body name: Praxidike (527)                 {source: jup341}
Center body name: Solar System Barycenter (0)     {source: DE431mx}
Center-site name: BODY CENTER
*******************************************************************************
Start time      : A.D. 2017-Jul-10 00:00:00.0000 TDB
Stop  time      : A.D. 2020-Aug-13 00:00:00.0000 TDB
Step-size       : 1440 minutes
*******************************************************************************
Center geodetic : 0.00000000,0.00000000,0.0000000 {E-lon(deg),Lat(deg),Alt(km)}
Center cylindric: 0.00000000,0.00000000,0.0000000 {E-lon(deg),Dxy(km),Dz(km)}
Center radii    : (undefined)                                                  
Output units    : KM-S                                                         
Output type     : GEOMETRIC cartesian states
Output format   : 3 (position, velocity, LT, range, range-rate)
Reference frame : ICRF/J2000.0                                                 
Coordinate systm: Ecliptic and Mean Equinox of Reference Epoch                 
*******************************************************************************
            JDTDB,            Calendar Date (TDB),                      X,                      Y,                      Z,                     VX,                     VY,                     VZ,                     LT,                     RG,                     RR,
**************************************************************************************************************************************************************************************************************************************************************************
$$SOE
2458611.500000000, A.D. 2019-May-08 00:00:00.0000, -1.958904548184730E+08, -7.893064379461058E+08,  2.047424330335498E+07,  1.086005541875473E+01, -1.225051096720837E+00, -5.336203360982273E-01,  2.713573986110918E+03,  8.135090152610497E+08, -1.439893017160973E+00,
2458612.500000000, A.D. 2019-May-09 00:00:00.0000, -1.949516292562630E+08, -7.894109870822264E+08,  2.042770046662730E+07,  1.087203680503200E+01, -1.195072127777777E+00, -5.437622361863977E-01,  2.713156167620335E+03,  8.133837564287602E+08, -1.459613648728421E+00,
2458613.500000000, A.D. 2019-May-10 00:00:00.0000, -1.940117635638769E+08, -7.895129471683240E+08,  2.038028083238310E+07,  1.088413259010407E+01, -1.165119497849466E+00, -5.539165157826849E-01,  2.712732668609212E+03,  8.132567946192551E+08, -1.479313560277521E+00,
2458614.500000000, A.D. 2019-May-11 00:00:00.0000, -1.930708478357687E+08, -7.896123205101073E+08,  2.033198334689915E+07,  1.089634326752772E+01, -1.135193904590601E+00, -5.640828016475212E-01,  2.712303495245754E+03,  8.131281316817156E+08, -1.498991382018632E+00,
2458615.500000000, A.D. 2019-May-12 00:00:00.0000, -1.921288721246732E+08, -7.897091094739695E+08,  2.028280698977292E+07,  1.090866931262642E+01, -1.105296051948720E+00, -5.742607022655140E-01,  2.711868654095862E+03,  8.129977695845501E+08, -1.518645727826799E+00,
2458616.500000000, A.D. 2019-May-13 00:00:00.0000, -1.911858264420103E+08, -7.898033164870870E+08,  2.023275077397114E+07,  1.092111121021835E+01, -1.075426644364032E+00, -5.844498381435566E-01,  2.711428152125345E+03,  8.128657104160550E+08, -1.538275208224057E+00,
2458617.500000000, A.D. 2019-May-14 00:00:00.0000, -1.902417007566419E+08, -7.898949440379912E+08,  2.018181374509931E+07,  1.093366945859453E+01, -1.045586399787269E+00, -5.946498289110163E-01,  2.710981996702303E+03,  8.127319563851312E+08, -1.557878418229411E+00,
2458618.500000000, A.D. 2019-May-15 00:00:00.0000, -1.892964849943328E+08, -7.899839946780436E+08,  2.012999498237747E+07,  1.094634455515042E+01, -1.015776053853787E+00, -6.048602762499874E-01,  2.710530195603178E+03,  8.125965098230975E+08, -1.577453929392487E+00,
2458619.500000000, A.D. 2019-May-16 00:00:00.0000, -1.883501690380627E+08, -7.900704710226157E+08,  2.007729359994686E+07,  1.095913699387886E+01, -9.859963510484897E-01, -6.150807729462144E-01,  2.710072757018560E+03,  8.124593731854306E+08, -1.597000297981546E+00,
2458620.500000000, A.D. 2019-May-17 00:00:00.0000, -1.874027427279933E+08, -7.901543757516155E+08,  2.002370874706221E+07,  1.097204727296144E+01, -9.562480414370281E-01, -6.253109134922844E-01,  2.709609689556519E+03,  8.123205490527658E+08, -1.616516070150067E+00,
2458621.500000000, A.D. 2019-May-18 00:00:00.0000, -1.864541958610299E+08, -7.902357116102571E+08,  1.996923960823178E+07,  1.098507589438212E+01, -9.265318879580278E-01, -6.355502847443772E-01,  2.709141002246431E+03,  8.121800401320409E+08, -1.635999774449537E+00,
2458622.500000000, A.D. 2019-May-19 00:00:00.0000, -1.855045181908503E+08, -7.903144814103155E+08,  1.991388540436572E+07,  1.099822335570423E+01, -8.968486671278730E-01, -6.457984578671268E-01,  2.708666704544835E+03,  8.120378492582557E+08, -1.655449918994263E+00,
2458623.500000000, A.D. 2019-May-20 00:00:00.0000, -1.845536994283343E+08, -7.903906880307965E+08,  1.985764539355755E+07,  1.101149015183054E+01, -8.671991566145846E-01, -6.560550050767797E-01,  2.708186806339683E+03,  8.118939793957436E+08, -1.674865004349705E+00,
2458624.500000000, A.D. 2019-May-21 00:00:00.0000, -1.836017292412192E+08, -7.904643344178765E+08,  1.980051887028378E+07,  1.102487678849824E+01, -8.375841367980209E-01, -6.663195099283563E-01,  2.707701317951510E+03,  8.117484336385226E+08, -1.694243525290303E+00,
2458625.500000000, A.D. 2019-May-22 00:00:00.0000, -1.826485972530265E+08, -7.905354235862787E+08,  1.974250516566312E+07,  1.103838378071649E+01, -8.080044178166370E-01, -6.765915337288162E-01,  2.707210250138820E+03,  8.116012152119116E+08, -1.713583943164408E+00,
2458626.500000000, A.D. 2019-May-23 00:00:00.0000, -1.816942930431172E+08, -7.906039586214657E+08,  1.968360364967614E+07,  1.105201163415967E+01, -7.784608127086899E-01, -6.868706312908859E-01,  2.706713614107179E+03,  8.114523274752547E+08, -1.732884708155066E+00,
2458627.500000000, A.D. 2019-May-24 00:00:00.0000, -1.807388061469867E+08, -7.906699426772460E+08,  1.962381372813183E+07,  1.106576086424173E+01, -7.489541287152898E-01, -6.971563777535500E-01,  2.706211421503165E+03,  8.113017739201078E+08, -1.752144272678849E+00,
2458628.500000000, A.D. 2019-May-25 00:00:00.0000, -1.797821260545420E+08, -7.907333789824289E+08,  1.956313484857249E+07,  1.107963198583560E+01, -7.194852206952791E-01, -7.074482962094446E-01,  2.705703684436963E+03,  8.111495581770135E+08, -1.771361035162790E+00,
2458629.500000000, A.D. 2019-May-26 00:00:00.0000, -1.788242422131802E+08, -7.907942708363252E+08,  1.950156649744308E+07,  1.109362553058556E+01, -6.900549459324854E-01, -7.177459300849245E-01,  2.705190415471588E+03,  8.109956840122687E+08, -1.790533389644926E+00,
2458630.500000000, A.D. 2019-May-27 00:00:00.0000, -1.778651440230571E+08, -7.908526216141697E+08,  1.943910820125723E+07,  1.110774198999504E+01, -6.606641551106900E-01, -7.280487958937510E-01,  2.704671627638917E+03,  8.108401553327314E+08, -1.809659720740729E+00,
2458631.500000000, A.D. 2019-May-28 00:00:00.0000, -1.769048208424141E+08, -7.909084347642505E+08,  1.937575952818447E+07,  1.112198188284627E+01, -6.313137096480086E-01, -7.383564289158931E-01,  2.704147334436223E+03,  8.106829761847830E+08, -1.828738402827174E+00,
2458632.500000000, A.D. 2019-May-29 00:00:00.0000, -1.759432619835601E+08, -7.909617138107268E+08,  1.931152008682078E+07,  1.113634573831194E+01, -6.020044977460126E-01, -7.486683504819401E-01,  2.703617549834116E+03,  8.105241507567071E+08, -1.847767779660665E+00,
2458633.500000000, A.D. 2019-May-30 00:00:00.0000, -1.749804567138914E+08, -7.910124623546163E+08,  1.924638952783471E+07,  1.115083407161402E+01, -5.727374097059759E-01, -7.589840705341961E-01,  2.703082288282503E+03,  8.103636833804760E+08, -1.866746183163275E+00,
2458634.500000000, A.D. 2019-May-31 00:00:00.0000, -1.740163942558091E+08, -7.910606840742513E+08,  1.918036754400510E+07,  1.116544741128704E+01, -5.435133477430594E-01, -7.693031035716700E-01,  2.702541564713870E+03,  8.102015785327369E+08, -1.885671930116382E+00,
2458635.500000000, A.D. 2019-Jun-01 00:00:00.0000, -1.730510637856050E+08, -7.911063827268637E+08,  1.911345387042689E+07,  1.118018629277350E+01, -5.143332362310735E-01, -7.796249521511310E-01,  2.701995394549558E+03,  8.100378408366916E+08, -1.904543310248797E+00,
2458636.500000000, A.D. 2019-Jun-02 00:00:00.0000, -1.720844544336385E+08, -7.911495621503215E+08,  1.904564828609109E+07,  1.119505124283696E+01, -4.851980155119227E-01, -7.899490985473325E-01,  2.701443793707587E+03,  8.098724750644423E+08, -1.923358588674920E+00,
2458637.500000000, A.D. 2019-Jun-03 00:00:00.0000, -1.711165552850131E+08, -7.911902262640871E+08,  1.897695061512423E+07,  1.121004278452130E+01, -4.561086334061493E-01, -8.002750184861129E-01,  2.700886778608285E+03,  8.097054861386795E+08, -1.942116015568510E+00,
2458638.500000000, A.D. 2019-Jun-04 00:00:00.0000, -1.701473553793767E+08, -7.912283790698949E+08,  1.890736072687012E+07,  1.122516144772010E+01, -4.270660477730858E-01, -8.106021889993916E-01,  2.700324366178290E+03,  8.095368791338818E+08, -1.960813826039060E+00,
2458639.500000000, A.D. 2019-Jun-05 00:00:00.0000, -1.691768437104069E+08, -7.912640246529316E+08,  1.883687853616673E+07,  1.124040776481026E+01, -3.980712330690893E-01, -8.209300776095512E-01,  2.699756573856020E+03,  8.093666592779547E+08, -1.979450232456594E+00,
